IRIDIUM 57              
1 25273U 98019B   25018.54486263  .00000604  00000+0  20241-3 0  9991
2 25273  86.3962 207.8926 0001981  92.2124 267.9300 14.35689533403313
IRIDIUM 63              
1 25286U 98021B   25018.41040910  .00000985  00000+0  33053-3 0  9996
2 25286  86.4025 144.9444 0002100  90.5605 269.5832 14.36327716402346
IRIDIUM 69              
1 25319U 98026A   25018.46334429  .00001340  00000+0  41375-3 0  9996
2 25319  86.4021 158.6459 0003631 128.9406 231.2117 14.40682998401502
IRIDIUM 71              
1 25320U 98026B   25018.42191949  .00001057  00000+0  32354-3 0  9994
2 25320  86.4019 153.3875 0001834 160.9704 199.1564 14.40912307402021
IRIDIUM 73              
1 25344U 98032C   25018.26461737  .00001290  00000+0  31888-3 0  9994
2 25344  86.4423 110.5053 0002613 106.0725 254.0768 14.51357727408810
IRIDIUM 82              
1 25467U 98051A   25018.48399908  .00035208  00000+0  13050-2 0  9991
2 25467  86.3732 182.7430 0103061 141.0958 219.7763 15.22520763401103
